[
    {
        "Altitude(m)": 555411.1554731317,
        "Argument of Periapsis(deg)": 0.013245982221427002,
        "Eccentricity": 0.0,
        "Inclination(deg)": 53.0,
        "Latitude(deg)": 32.13776296067027,
        "Longitude(deg)": -179.6630806020891,
        "Mean Anomaly(deg)": 138.3650857351552,
        "RAAN(deg)": 129.98028673705602,
        "Satellite Name": "Starlink Shell 1 579",
        "Satellite Number": 579,
        "Semi-Major Axis(m)": 6931778.249405717,
        "Time(s)": 380
    },
    {
        "Altitude(m)": 555333.9742597375,
        "Argument of Periapsis(deg)": 0.013594560700938237,
        "Eccentricity": 0.0,
        "Inclination(deg)": 53.0,
        "Latitude(deg)": 31.69317179609153,
        "Longitude(deg)": -179.18247997995803,
        "Mean Anomaly(deg)": 138.9919169387119,
        "RAAN(deg)": 129.97976796697856,
        "Satellite Name": "Starlink Shell 1 579",
        "Satellite Number": 579,
        "Semi-Major Axis(m)": 6931778.249405717,
        "Time(s)": 390
    },
    {
        "Altitude(m)": 555257.6499456918,
        "Argument of Periapsis(deg)": 0.013943139180449475,
        "Eccentricity": 0.0,
        "Inclination(deg)": 53.0,
        "Latitude(deg)": 31.24643431250888,
        "Longitude(deg)": -178.70683960572202,
        "Mean Anomaly(deg)": 139.6187481422686,
        "RAAN(deg)": 129.97924919690107,
        "Satellite Name": "Starlink Shell 1 579",
        "Satellite Number": 579,
        "Semi-Major Axis(m)": 6931778.249405717,
        "Time(s)": 400
    },
    {
        "Altitude(m)": 555182.2371854704,
        "Argument of Periapsis(deg)": 0.014291717659960712,
        "Eccentricity": 0.0,
        "Inclination(deg)": 53.0,
        "Latitude(deg)": 30.797606640414,
        "Longitude(deg)": -178.23604978249884,
        "Mean Anomaly(deg)": 140.24557934582538,
        "RAAN(deg)": 129.97873042682363,
        "Satellite Name": "Starlink Shell 1 579",
        "Satellite Number": 579,
        "Semi-Major Axis(m)": 6931778.249405717,
        "Time(s)": 410
    },
    {
        "Altitude(m)": 555107.7903719515,
        "Argument of Periapsis(deg)": 0.014640296139471948,
        "Eccentricity": 0.0,
        "Inclination(deg)": 53.0,
        "Latitude(deg)": 30.346743653141477,
        "Longitude(deg)": -177.77000255366335,
        "Mean Anomaly(deg)": 140.87241054938198,
        "RAAN(deg)": 129.97821165674614,
        "Satellite Name": "Starlink Shell 1 579",
        "Satellite Number": 579,
        "Semi-Major Axis(m)": 6931778.249405717,
        "Time(s)": 420
    },
    {
        "Altitude(m)": 555034.3636078637,
        "Argument of Periapsis(deg)": 0.014988874618983185,
        "Eccentricity": 0.0,
        "Inclination(deg)": 53.0,
        "Latitude(deg)": 29.893898999298862,
        "Longitude(deg)": -177.30859122352464,
        "Mean Anomaly(deg)": 141.49924175293873,
        "RAAN(deg)": 129.97769288666868,
        "Satellite Name": "Starlink Shell 1 579",
        "Satellite Number": 579,
        "Semi-Major Axis(m)": 6931778.249405717,
        "Time(s)": 430
    },
    {
        "Altitude(m)": 554962.010677326,
        "Argument of Periapsis(deg)": 0.015337453098494424,
        "Eccentricity": 0.0,
        "Inclination(deg)": 53.0,
        "Latitude(deg)": 29.439125134923472,
        "Longitude(deg)": -176.85170987330136,
        "Mean Anomaly(deg)": 142.12607295649548,
        "RAAN(deg)": 129.9771741165912,
        "Satellite Name": "Starlink Shell 1 579",
        "Satellite Number": 579,
        "Semi-Major Axis(m)": 6931778.249405717,
        "Time(s)": 440
    },
    {
        "Altitude(m)": 554890.7850174822,
        "Argument of Periapsis(deg)": 0.01568603157800566,
        "Eccentricity": 0.0,
        "Inclination(deg)": 53.0,
        "Latitude(deg)": 28.982473355323368,
        "Longitude(deg)": -176.39925438560977,
        "Mean Anomaly(deg)": 142.7529041600522,
        "RAAN(deg)": 129.97665534651372,
        "Satellite Name": "Starlink Shell 1 579",
        "Satellite Number": 579,
        "Semi-Major Axis(m)": 6931778.249405717,
        "Time(s)": 450
    },
    {
        "Altitude(m)": 554820.7396903047,
        "Argument of Periapsis(deg)": 0.0160346100575169,
        "Eccentricity": 0.0,
        "Inclination(deg)": 53.0,
        "Latitude(deg)": 28.523993826559234,
        "Longitude(deg)": -175.95112195204078,
        "Mean Anomaly(deg)": 143.37973536360894,
        "RAAN(deg)": 129.97613657643623,
        "Satellite Name": "Starlink Shell 1 579",
        "Satellite Number": 579,
        "Semi-Major Axis(m)": 6931778.249405717,
        "Time(s)": 460
    },
    {
        "Altitude(m)": 554751.9273545161,
        "Argument of Periapsis(deg)": 0.016383188537028134,
        "Eccentricity": 0.0,
        "Inclination(deg)": 53.0,
        "Latitude(deg)": 28.06373561653602,
        "Longitude(deg)": -175.50721057700468,
        "Mean Anomaly(deg)": 144.0065665671656,
        "RAAN(deg)": 129.9756178063588,
        "Satellite Name": "Starlink Shell 1 579",
        "Satellite Number": 579,
        "Semi-Major Axis(m)": 6931778.249405717,
        "Time(s)": 470
    },
    {
        "Altitude(m)": 554684.4002376423,
        "Argument of Periapsis(deg)": 0.01673176701653937,
        "Eccentricity": 0.0,
        "Inclination(deg)": 53.0,
        "Latitude(deg)": 27.60174672567718,
        "Longitude(deg)": -175.0674200910029,
        "Mean Anomaly(deg)": 144.63339777072233,
        "RAAN(deg)": 129.9750990362813,
        "Satellite Name": "Starlink Shell 1 579",
        "Satellite Number": 579,
        "Semi-Major Axis(m)": 6931778.249405717,
        "Time(s)": 480
    },
    {
        "Altitude(m)": 554618.2101082905,
        "Argument of Periapsis(deg)": 0.017080345496050607,
        "Eccentricity": 0.0,
        "Inclination(deg)": 53.0,
        "Latitude(deg)": 27.138074117152748,
        "Longitude(deg)": -174.63165164785227,
        "Mean Anomaly(deg)": 145.26022897427907,
        "RAAN(deg)": 129.97458026620384,
        "Satellite Name": "Starlink Shell 1 579",
        "Satellite Number": 579,
        "Semi-Major Axis(m)": 6931778.249405717,
        "Time(s)": 490
    },
    {
        "Altitude(m)": 554553.4082485655,
        "Argument of Periapsis(deg)": 0.017428923975561842,
        "Eccentricity": 0.0,
        "Inclination(deg)": 53.0,
        "Latitude(deg)": 26.672763746640573,
        "Longitude(deg)": -174.1998072189865,
        "Mean Anomaly(deg)": 145.8870601778358,
        "RAAN(deg)": 129.97406149612635,
        "Satellite Name": "Starlink Shell 1 579",
        "Satellite Number": 579,
        "Semi-Major Axis(m)": 6931778.249405717,
        "Time(s)": 500
    },
    {
        "Altitude(m)": 554490.0454267211,
        "Argument of Periapsis(deg)": 0.01777750245507308,
        "Eccentricity": 0.0,
        "Inclination(deg)": 53.0,
        "Latitude(deg)": 26.205860591607568,
        "Longitude(deg)": -173.77179059794858,
        "Mean Anomaly(deg)": 146.51389138139245,
        "RAAN(deg)": 129.9735427260489,
        "Satellite Name": "Starlink Shell 1 579",
        "Satellite Number": 579,
        "Semi-Major Axis(m)": 6931778.249405717,
        "Time(s)": 510
    },
    {
        "Altitude(m)": 554428.1718699961,
        "Argument of Periapsis(deg)": 0.018126080934584315,
        "Eccentricity": 0.0,
        "Inclination(deg)": 53.0,
        "Latitude(deg)": 25.737408680089697,
        "Longitude(deg)": -173.3475068895487,
        "Mean Anomaly(deg)": 147.14072258494915,
        "RAAN(deg)": 129.9730239559714,
        "Satellite Name": "Starlink Shell 1 579",
        "Satellite Number": 579,
        "Semi-Major Axis(m)": 6931778.249405717,
        "Time(s)": 520
    },
    {
        "Altitude(m)": 554367.8372376754,
        "Argument of Periapsis(deg)": 0.018474659414095554,
        "Eccentricity": 0.0,
        "Inclination(deg)": 53.0,
        "Latitude(deg)": 25.267451118962903,
        "Longitude(deg)": -172.92686199677124,
        "Mean Anomaly(deg)": 147.7675537885059,
        "RAAN(deg)": 129.97250518589397,
        "Satellite Name": "Starlink Shell 1 579",
        "Satellite Number": 579,
        "Semi-Major Axis(m)": 6931778.249405717,
        "Time(s)": 530
    },
    {
        "Altitude(m)": 554309.0905944412,
        "Argument of Periapsis(deg)": 0.018823237893606792,
        "Eccentricity": 0.0,
        "Inclination(deg)": 53.0,
        "Latitude(deg)": 24.796030121698582,
        "Longitude(deg)": -172.50976361849877,
        "Mean Anomaly(deg)": 148.39438499206264,
        "RAAN(deg)": 129.97198641581647,
        "Satellite Name": "Starlink Shell 1 579",
        "Satellite Number": 579,
        "Semi-Major Axis(m)": 6931778.249405717,
        "Time(s)": 540
    },
    {
        "Altitude(m)": 554251.9803839221,
        "Argument of Periapsis(deg)": 0.019171816373118027,
        "Eccentricity": 0.0,
        "Inclination(deg)": 53.0,
        "Latitude(deg)": 24.32318703559088,
        "Longitude(deg)": -172.09612073248772,
        "Mean Anomaly(deg)": 149.02121619561936,
        "RAAN(deg)": 129.971467645739,
        "Satellite Name": "Starlink Shell 1 579",
        "Satellite Number": 579,
        "Semi-Major Axis(m)": 6931778.249405717,
        "Time(s)": 550
    },
    {
        "Altitude(m)": 554196.5544025364,
        "Argument of Periapsis(deg)": 0.019520394852629266,
        "Eccentricity": 0.0,
        "Inclination(deg)": 53.0,
        "Latitude(deg)": 23.848962368455638,
        "Longitude(deg)": -171.68584307664017,
        "Mean Anomaly(deg)": 149.64804739917605,
        "RAAN(deg)": 129.97094887566152,
        "Satellite Name": "Starlink Shell 1 579",
        "Satellite Number": 579,
        "Semi-Major Axis(m)": 6931778.249405717,
        "Time(s)": 560
    }
]